Program orbview.c : First Line for Random Comments.
1  ---- First Element: (1=Semimajor Axis 2=Pericenter Distance)
    1.500000  ---- Value of First Element. (in AU)
    0.600000  ---- Second Element: Eccentricity of the orbit
   20.000000  ---- Third Element: Inclination of the orbit (in degrees)
  120.000000  ---- Fourth Element: Longitude of the nodes (in degrees)
1  ---- Fifth Element: (1,2 = Argument, Longitude of Pericenter)
   30.000000  ---- Value of the Fifth Element (in degrees)
1  ---- Sixth Element: (1,2,3 = T,E,M Anom.; 4,5 = T,M Lat.)
  -85.000000  ---- Value of the Sixth Element (in degrees) (6,7 = T,M Lon.)

ORBITAL ELEMENTS:
  1. semimajor axis =                1.50000000
     pericenter distance =           0.60000000
  2. eccentricity =                  0.60000000
  3. inclination =                   20.000 degrees
  4. Longitude of Ascending Node =  120.000 degrees
  5. Argument of Pericenter =        30.000 degrees
     Longitude of Pericenter =      150.000 degrees
  6. True Anomaly =                 -85.000 degrees
     Eccentric Anomaly =            -49.231 degrees
     Mean Anomaly =                 -23.195 degrees
     Argument of Latitude =         -55.000 degrees
     Mean Arg. of Latitude =          6.805 degrees
     True Longitude =                65.000 degrees
     Mean Longitude =               126.805 degrees


    0 -180.0  2.0158 -1.2362 -0.4104  1.8566e-01  3.4289e-01 -1.2092e-01 
    1 -179.0  2.0217 -1.2251 -0.4143  1.8098e-01  3.4575e-01 -1.1997e-01 
    2 -178.0  2.0274 -1.2140 -0.4181  1.7628e-01  3.4858e-01 -1.1900e-01 
    3 -177.0  2.0330 -1.2028 -0.4219  1.7157e-01  3.5138e-01 -1.1803e-01 
    4 -176.0  2.0384 -1.1915 -0.4257  1.6684e-01  3.5416e-01 -1.1704e-01 
    5 -175.0  2.0437 -1.1801 -0.4294  1.6210e-01  3.5691e-01 -1.1605e-01 
    6 -174.0  2.0488 -1.1686 -0.4331  1.5735e-01  3.5964e-01 -1.1505e-01 
    7 -173.0  2.0538 -1.1570 -0.4368  1.5258e-01  3.6235e-01 -1.1403e-01 
    8 -172.0  2.0586 -1.1454 -0.4404  1.4779e-01  3.6503e-01 -1.1301e-01 
    9 -171.0  2.0632 -1.1336 -0.4440  1.4299e-01  3.6768e-01 -1.1198e-01 
   10 -170.0  2.0677 -1.1218 -0.4476  1.3817e-01  3.7031e-01 -1.1094e-01 
   11 -169.0  2.0721 -1.1099 -0.4512  1.3333e-01  3.7292e-01 -1.0989e-01 
   12 -168.0  2.0763 -1.0979 -0.4547  1.2847e-01  3.7551e-01 -1.0883e-01 
   13 -167.0  2.0803 -1.0858 -0.4581  1.2360e-01  3.7806e-01 -1.0776e-01 
   14 -166.0  2.0842 -1.0736 -0.4616  1.1871e-01  3.8060e-01 -1.0668e-01 
   15 -165.0  2.0879 -1.0614 -0.4650  1.1381e-01  3.8311e-01 -1.0559e-01 
   16 -164.0  2.0915 -1.0491 -0.4684  1.0888e-01  3.8560e-01 -1.0449e-01 
   17 -163.0  2.0949 -1.0366 -0.4717  1.0394e-01  3.8806e-01 -1.0338e-01 
   18 -162.0  2.0982 -1.0242 -0.4750  9.8972e-02  3.9050e-01 -1.0226e-01 
   19 -161.0  2.1013 -1.0116 -0.4782  9.3988e-02  3.9292e-01 -1.0113e-01 
   20 -160.0  2.1042 -0.9990 -0.4815  8.8985e-02  3.9531e-01 -9.9989e-02 
   21 -159.0  2.1070 -0.9863 -0.4847  8.3961e-02  3.9768e-01 -9.8836e-02 
   22 -158.0  2.1096 -0.9735 -0.4878  7.8916e-02  4.0002e-01 -9.7673e-02 
   23 -157.0  2.1120 -0.9606 -0.4909  7.3850e-02  4.0234e-01 -9.6498e-02 
   24 -156.0  2.1143 -0.9477 -0.4940  6.8762e-02  4.0464e-01 -9.5313e-02 
   25 -155.0  2.1165 -0.9347 -0.4970  6.3652e-02  4.0691e-01 -9.4116e-02 
   26 -154.0  2.1184 -0.9216 -0.5000  5.8520e-02  4.0916e-01 -9.2908e-02 
   27 -153.0  2.1202 -0.9084 -0.5030  5.3365e-02  4.1139e-01 -9.1688e-02 
   28 -152.0  2.1218 -0.8952 -0.5059  4.8187e-02  4.1359e-01 -9.0456e-02 
   29 -151.0  2.1233 -0.8819 -0.5088  4.2985e-02  4.1577e-01 -8.9213e-02 
   30 -150.0  2.1246 -0.8685 -0.5116  3.7758e-02  4.1792e-01 -8.7957e-02 
   31 -149.0  2.1257 -0.8551 -0.5144  3.2508e-02  4.2005e-01 -8.6690e-02 
   32 -148.0  2.1267 -0.8416 -0.5172  2.7232e-02  4.2216e-01 -8.5410e-02 
   33 -147.0  2.1275 -0.8280 -0.5199  2.1930e-02  4.2424e-01 -8.4117e-02 
   34 -146.0  2.1281 -0.8144 -0.5226  1.6602e-02  4.2629e-01 -8.2812e-02 
   35 -145.0  2.1285 -0.8007 -0.5252  1.1248e-02  4.2832e-01 -8.1494e-02 
   36 -144.0  2.1288 -0.7869 -0.5278  5.8668e-03  4.3033e-01 -8.0163e-02 
   37 -143.0  2.1289 -0.7731 -0.5304  4.5790e-04  4.3231e-01 -7.8819e-02 
   38 -142.0  2.1288 -0.7592 -0.5329 -4.9792e-03  4.3427e-01 -7.7461e-02 
   39 -141.0  2.1286 -0.7452 -0.5353 -1.0445e-02  4.3620e-01 -7.6090e-02 
   40 -140.0  2.1282 -0.7312 -0.5377 -1.5940e-02  4.3811e-01 -7.4705e-02 
   41 -139.0  2.1276 -0.7171 -0.5401 -2.1465e-02  4.3999e-01 -7.3305e-02 
   42 -138.0  2.1268 -0.7030 -0.5424 -2.7020e-02  4.4184e-01 -7.1892e-02 
   43 -137.0  2.1258 -0.6888 -0.5447 -3.2606e-02  4.4367e-01 -7.0464e-02 
   44 -136.0  2.1247 -0.6746 -0.5470 -3.8223e-02  4.4547e-01 -6.9021e-02 
   45 -135.0  2.1234 -0.6602 -0.5491 -4.3873e-02  4.4725e-01 -6.7563e-02 
   46 -134.0  2.1219 -0.6459 -0.5513 -4.9555e-02  4.4900e-01 -6.6090e-02 
   47 -133.0  2.1202 -0.6315 -0.5534 -5.5271e-02  4.5072e-01 -6.4602e-02 
   48 -132.0  2.1183 -0.6170 -0.5554 -6.1021e-02  4.5241e-01 -6.3098e-02 
   49 -131.0  2.1163 -0.6024 -0.5574 -6.6806e-02  4.5408e-01 -6.1577e-02 
   50 -130.0  2.1140 -0.5879 -0.5594 -7.2625e-02  4.5571e-01 -6.0041e-02 
   51 -129.0  2.1116 -0.5732 -0.5613 -7.8481e-02  4.5732e-01 -5.8488e-02 
   52 -128.0  2.1090 -0.5585 -0.5631 -8.4374e-02  4.5890e-01 -5.6918e-02 
   53 -127.0  2.1062 -0.5438 -0.5649 -9.0304e-02  4.6045e-01 -5.5331e-02 
   54 -126.0  2.1032 -0.5290 -0.5667 -9.6272e-02  4.6197e-01 -5.3727e-02 
   55 -125.0  2.1000 -0.5142 -0.5684 -1.0228e-01  4.6347e-01 -5.2104e-02 
   56 -124.0  2.0967 -0.4993 -0.5700 -1.0833e-01  4.6493e-01 -5.0464e-02 
   57 -123.0  2.0931 -0.4844 -0.5716 -1.1441e-01  4.6635e-01 -4.8805e-02 
   58 -122.0  2.0893 -0.4694 -0.5732 -1.2054e-01  4.6775e-01 -4.7128e-02 
   59 -121.0  2.0854 -0.4544 -0.5746 -1.2671e-01  4.6912e-01 -4.5431e-02 
   60 -120.0  2.0812 -0.4393 -0.5761 -1.3293e-01  4.7045e-01 -4.3715e-02 
   61 -119.0  2.0768 -0.4242 -0.5774 -1.3919e-01  4.7175e-01 -4.1979e-02 
   62 -118.0  2.0723 -0.4090 -0.5788 -1.4549e-01  4.7302e-01 -4.0223e-02 
   63 -117.0  2.0675 -0.3939 -0.5800 -1.5184e-01  4.7425e-01 -3.8446e-02 
   64 -116.0  2.0625 -0.3786 -0.5812 -1.5823e-01  4.7544e-01 -3.6648e-02 
   65 -115.0  2.0574 -0.3634 -0.5824 -1.6467e-01  4.7660e-01 -3.4829e-02 
   66 -114.0  2.0520 -0.3481 -0.5835 -1.7116e-01  4.7773e-01 -3.2987e-02 
   67 -113.0  2.0464 -0.3327 -0.5845 -1.7770e-01  4.7881e-01 -3.1124e-02 
   68 -112.0  2.0406 -0.3174 -0.5855 -1.8429e-01  4.7986e-01 -2.9237e-02 
   69 -111.0  2.0346 -0.3020 -0.5864 -1.9093e-01  4.8087e-01 -2.7327e-02 
   70 -110.0  2.0283 -0.2865 -0.5872 -1.9763e-01  4.8184e-01 -2.5394e-02 
   71 -109.0  2.0219 -0.2711 -0.5880 -2.0438e-01  4.8277e-01 -2.3436e-02 
   72 -108.0  2.0152 -0.2556 -0.5887 -2.1118e-01  4.8366e-01 -2.1453e-02 
   73 -107.0  2.0083 -0.2400 -0.5894 -2.1804e-01  4.8450e-01 -1.9445e-02 
   74 -106.0  2.0012 -0.2245 -0.5900 -2.2495e-01  4.8530e-01 -1.7411e-02 
   75 -105.0  1.9939 -0.2089 -0.5905 -2.3193e-01  4.8606e-01 -1.5351e-02 
   76 -104.0  1.9864 -0.1933 -0.5909 -2.3896e-01  4.8677e-01 -1.3263e-02 
   77 -103.0  1.9786 -0.1777 -0.5913 -2.4605e-01  4.8743e-01 -1.1148e-02 
   78 -102.0  1.9706 -0.1621 -0.5917 -2.5321e-01  4.8805e-01 -9.0044e-03 
   79 -101.0  1.9624 -0.1464 -0.5919 -2.6043e-01  4.8861e-01 -6.8318e-03 
   80 -100.0  1.9539 -0.1307 -0.5921 -2.6771e-01  4.8913e-01 -4.6297e-03 
   81  -99.0  1.9452 -0.1150 -0.5922 -2.7506e-01  4.8959e-01 -2.3972e-03 
   82  -98.0  1.9363 -0.0993 -0.5922 -2.8248e-01  4.9000e-01 -1.3372e-04 
   83  -97.0  1.9271 -0.0836 -0.5922 -2.8997e-01  4.9036e-01  2.1616e-03 
   84  -96.0  1.9177 -0.0679 -0.5921 -2.9752e-01  4.9066e-01  4.4895e-03 
   85  -95.0  1.9080 -0.0522 -0.5919 -3.0515e-01  4.9089e-01  6.8507e-03 
   86  -94.0  1.8981 -0.0364 -0.5917 -3.1285e-01  4.9107e-01  9.2461e-03 
   87  -93.0  1.8879 -0.0207 -0.5913 -3.2063e-01  4.9119e-01  1.1676e-02 
   88  -92.0  1.8775 -0.0049 -0.5909 -3.2849e-01  4.9124e-01  1.4143e-02 
   89  -91.0  1.8669  0.0108 -0.5904 -3.3642e-01  4.9123e-01  1.6646e-02 
   90  -90.0  1.8560  0.0266 -0.5898 -3.4444e-01  4.9115e-01  1.9187e-02 
   91  -89.0  1.8448  0.0423 -0.5892 -3.5253e-01  4.9100e-01  2.1766e-02 
   92  -88.0  1.8333  0.0581 -0.5885 -3.6071e-01  4.9078e-01  2.4386e-02 
   93  -87.0  1.8216  0.0738 -0.5876 -3.6898e-01  4.9048e-01  2.7046e-02 
   94  -86.0  1.8097  0.0895 -0.5867 -3.7734e-01  4.9010e-01  2.9748e-02 
   95  -85.0  1.7974  0.1052 -0.5857 -3.8578e-01  4.8965e-01  3.2493e-02 
   96  -84.0  1.7849  0.1209 -0.5846 -3.9432e-01  4.8911e-01  3.5282e-02 
   97  -83.0  1.7722  0.1366 -0.5835 -4.0295e-01  4.8848e-01  3.8116e-02 
   98  -82.0  1.7591  0.1522 -0.5822 -4.1168e-01  4.8777e-01  4.0997e-02 
   99  -81.0  1.7458  0.1679 -0.5808 -4.2050e-01  4.8696e-01  4.3926e-02 
  100  -80.0  1.7321  0.1835 -0.5794 -4.2943e-01  4.8606e-01  4.6904e-02 
  101  -79.0  1.7182  0.1990 -0.5778 -4.3846e-01  4.8506e-01  4.9933e-02 
  102  -78.0  1.7040  0.2146 -0.5762 -4.4760e-01  4.8395e-01  5.3014e-02 
  103  -77.0  1.6895  0.2301 -0.5744 -4.5684e-01  4.8274e-01  5.6149e-02 
  104  -76.0  1.6747  0.2455 -0.5726 -4.6620e-01  4.8142e-01  5.9339e-02 
  105  -75.0  1.6596  0.2609 -0.5706 -4.7567e-01  4.7998e-01  6.2585e-02 
  106  -74.0  1.6442  0.2763 -0.5686 -4.8526e-01  4.7842e-01  6.5891e-02 
  107  -73.0  1.6285  0.2916 -0.5664 -4.9496e-01  4.7674e-01  6.9256e-02 
  108  -72.0  1.6125  0.3069 -0.5641 -5.0479e-01  4.7492e-01  7.2684e-02 
  109  -71.0  1.5961  0.3221 -0.5617 -5.1474e-01  4.7297e-01  7.6176e-02 
  110  -70.0  1.5795  0.3372 -0.5592 -5.2482e-01  4.7088e-01  7.9733e-02 
  111  -69.0  1.5625  0.3523 -0.5566 -5.3503e-01  4.6864e-01  8.3359e-02 
  112  -68.0  1.5451  0.3673 -0.5539 -5.4537e-01  4.6624e-01  8.7055e-02 
  113  -67.0  1.5275  0.3822 -0.5510 -5.5585e-01  4.6369e-01  9.0824e-02 
  114  -66.0  1.5095  0.3970 -0.5481 -5.6647e-01  4.6096e-01  9.4668e-02 
  115  -65.0  1.4912  0.4117 -0.5450 -5.7724e-01  4.5806e-01  9.8588e-02 
